[{"OBJECT_NAME":"STARCLOUD-1","OBJECT_ID":"2025-248L","EPOCH":"2026-03-08T23:33:20.923488","MEAN_MOTION":15.20134222,"ECCENTRICITY":0.00060214,"INCLINATION":45.402,"RA_OF_ASC_NODE":297.8511,"ARG_OF_PERICENTER":202.4241,"MEAN_ANOMALY":157.6383,"EPHEMERIS_TYPE":0,"CLASSIFICATION_TYPE":"U","NORAD_CAT_ID":66303,"ELEMENT_SET_NO":999,"REV_AT_EPOCH":1928,"BSTAR":0.00040463937,"MEAN_MOTION_DOT":8.636e-5,"MEAN_MOTION_DDOT":0},{"OBJECT_NAME":"TRANSPORTER-15 OBJECT DM","OBJECT_ID":"2025-276DM","EPOCH":"2026-03-09T22:43:55.888032","MEAN_MOTION":15.19567791,"ECCENTRICITY":0.00018743,"INCLINATION":97.4286,"RA_OF_ASC_NODE":144.3741,"ARG_OF_PERICENTER":156.2959,"MEAN_ANOMALY":203.8363,"EPHEMERIS_TYPE":0,"CLASSIFICATION_TYPE":"U","NORAD_CAT_ID":66773,"ELEMENT_SET_NO":999,"REV_AT_EPOCH":1536,"BSTAR":0.00033320961,"MEAN_MOTION_DOT":7.022e-5,"MEAN_MOTION_DDOT":0}]
